HULIANWANG DIGUI-118    
1 66957U 25287E   25346.69967332 -.00000151  00000+0 -19373-3 0  9996
2 66957  86.4945 346.1700 0007219 190.5502 169.5507 13.69137019   523
CZ-6A R/B               
1 66958U 25287F   25348.06588066  .00000234  00000+0  15279-3 0  9994
2 66958  86.5059 345.5964 0107260  98.1704 263.1653 13.94919786   722
YAOGAN-47               
1 66988U 25289A   25345.62394963  .00005809  00000+0  24920-3 0  9995
2 66988  97.5268  50.7421 0000858  73.6850 286.4480 15.23120362   372
CZ-4B R/B               
1 66989U 25289B   25348.17903158  .00140877  78350-5  69789-3 0  9997
2 66989  97.5271  53.6256 0147993 357.4956   2.5546 15.67612238   799
TJS-22                  
1 66990U 25290A   25344.29968571 -.00000038  00000+0  79788-1 0  9994
2 66990  20.1261 301.1464 6664534 180.6877 177.6237  2.15443148    32
CZ-3B R/B               
1 66991U 25290B   25344.28119881  .00018897  45621-6  43781-3 0  9998
2 66991  28.4645 302.5976 7242055 179.3847 182.8677  2.37676924    36
2025-292A               
1 66993U 25292A   25348.80218404  .00004173  00000+0  30181-3 0  9992
2 66993  97.6536  61.3334 0013805 265.2483  94.7166 15.04510490   707
2025-292B               
1 66994U 25292B   25348.66903223  .00005037  00000+0  36288-3 0  9991
2 66994  97.6545  61.2022 0013614 266.3547  93.6122 15.04559991   688
2025-292C               
1 66995U 25292C   25348.80203608  .00006606  00000+0  47431-3 0  9993
2 66995  97.6533  61.3335 0014041 266.1758  93.7862 15.04564282   705
2025-292D               
1 66996U 25292D   25348.53585078  .00000874  00000+0  66608-4 0  9997
2 66996  97.6531  61.0701 0013218 269.9152  90.0560 15.04609236   661
2025-292E               
1 66997U 25292E   25348.60212454  .00000858  00000+0  65331-4 0  9995
2 66997  97.6547  61.1375 0013580 270.3465  89.6205 15.04688384   663
2025-292F               
1 66998U 25292F   25348.60168007  .00000854  00000+0  64716-4 0  9992
2 66998  97.6570  61.1387 0014675 270.7790  89.1754 15.04845918   677
